[
    {
        "Altitude(m)": 706920.8920908846,
        "Argument of Periapsis(deg)": 0.010251109067964361,
        "Eccentricity": 0.0,
        "Inclination(deg)": 45.0,
        "Latitude(deg)": 43.43614719167906,
        "Longitude(deg)": -130.34339500825,
        "Mean Anomaly(deg)": 75.83439498273272,
        "RAAN(deg)": 259.99032325268763,
        "Satellite Name": "Constellation 1 1148",
        "Satellite Number": 1148,
        "Semi-Major Axis(m)": 7083131.272910544,
        "Time(s)": 171
    },
    {
        "Altitude(m)": 706924.1255563038,
        "Argument of Periapsis(deg)": 0.010311057074209765,
        "Eccentricity": 0.0,
        "Inclination(deg)": 45.0,
        "Latitude(deg)": 43.450586006894206,
        "Longitude(deg)": -130.26645358083329,
        "Mean Anomaly(deg)": 75.89509612298265,
        "RAAN(deg)": 259.99026666352205,
        "Satellite Name": "Constellation 1 1148",
        "Satellite Number": 1148,
        "Semi-Major Axis(m)": 7083131.272910544,
        "Time(s)": 172
    },
    {
        "Altitude(m)": 706927.3466384232,
        "Argument of Periapsis(deg)": 0.010371005080455171,
        "Eccentricity": 0.0,
        "Inclination(deg)": 45.0,
        "Latitude(deg)": 43.464967334692936,
        "Longitude(deg)": -130.1894736870128,
        "Mean Anomaly(deg)": 75.95579726323253,
        "RAAN(deg)": 259.9902100743565,
        "Satellite Name": "Constellation 1 1148",
        "Satellite Number": 1148,
        "Semi-Major Axis(m)": 7083131.272910544,
        "Time(s)": 173
    },
    {
        "Altitude(m)": 706930.5553182494,
        "Argument of Periapsis(deg)": 0.010430953086700577,
        "Eccentricity": 0.0,
        "Inclination(deg)": 45.0,
        "Latitude(deg)": 43.479291119471746,
        "Longitude(deg)": -130.11245544282522,
        "Mean Anomaly(deg)": 76.01649840348242,
        "RAAN(deg)": 259.9901534851909,
        "Satellite Name": "Constellation 1 1148",
        "Satellite Number": 1148,
        "Semi-Major Axis(m)": 7083131.272910544,
        "Time(s)": 174
    },
    {
        "Altitude(m)": 706933.7515768573,
        "Argument of Periapsis(deg)": 0.010490901092945983,
        "Eccentricity": 0.0,
        "Inclination(deg)": 45.0,
        "Latitude(deg)": 43.493557305783,
        "Longitude(deg)": -130.0353989648605,
        "Mean Anomaly(deg)": 76.07719954373235,
        "RAAN(deg)": 259.9900968960253,
        "Satellite Name": "Constellation 1 1148",
        "Satellite Number": 1148,
        "Semi-Major Axis(m)": 7083131.272910544,
        "Time(s)": 175
    },
    {
        "Altitude(m)": 706936.9353954091,
        "Argument of Periapsis(deg)": 0.010550849099191389,
        "Eccentricity": 0.0,
        "Inclination(deg)": 45.0,
        "Latitude(deg)": 43.507765838335814,
        "Longitude(deg)": -129.95830437026177,
        "Mean Anomaly(deg)": 76.13790068398224,
        "RAAN(deg)": 259.9900403068598,
        "Satellite Name": "Constellation 1 1148",
        "Satellite Number": 1148,
        "Semi-Major Axis(m)": 7083131.272910544,
        "Time(s)": 176
    },
    {
        "Altitude(m)": 706940.1067551258,
        "Argument of Periapsis(deg)": 0.010610797105436795,
        "Eccentricity": 0.0,
        "Inclination(deg)": 45.0,
        "Latitude(deg)": 43.52191666199693,
        "Longitude(deg)": -129.88117177672433,
        "Mean Anomaly(deg)": 76.19860182423213,
        "RAAN(deg)": 259.9899837176942,
        "Satellite Name": "Constellation 1 1148",
        "Satellite Number": 1148,
        "Semi-Major Axis(m)": 7083131.272910544,
        "Time(s)": 177
    },
    {
        "Altitude(m)": 706943.2656373173,
        "Argument of Periapsis(deg)": 0.0106707451116822,
        "Eccentricity": 0.0,
        "Inclination(deg)": 45.0,
        "Latitude(deg)": 43.53600972179199,
        "Longitude(deg)": -129.80400147059183,
        "Mean Anomaly(deg)": 76.25930296448202,
        "RAAN(deg)": 259.9899271285287,
        "Satellite Name": "Constellation 1 1148",
        "Satellite Number": 1148,
        "Semi-Major Axis(m)": 7083131.272910544,
        "Time(s)": 178
    },
    {
        "Altitude(m)": 706946.4120233604,
        "Argument of Periapsis(deg)": 0.010730693117927606,
        "Eccentricity": 0.0,
        "Inclination(deg)": 45.0,
        "Latitude(deg)": 43.55004496290541,
        "Longitude(deg)": -129.72679323446837,
        "Mean Anomaly(deg)": 76.32000410473195,
        "RAAN(deg)": 259.98987053936304,
        "Satellite Name": "Constellation 1 1148",
        "Satellite Number": 1148,
        "Semi-Major Axis(m)": 7083131.272910544,
        "Time(s)": 179
    },
    {
        "Altitude(m)": 706949.5458947162,
        "Argument of Periapsis(deg)": 0.01079064112417301,
        "Eccentricity": 0.0,
        "Inclination(deg)": 45.0,
        "Latitude(deg)": 43.56402233068266,
        "Longitude(deg)": -129.64954735579886,
        "Mean Anomaly(deg)": 76.38070524498184,
        "RAAN(deg)": 259.98981395019746,
        "Satellite Name": "Constellation 1 1148",
        "Satellite Number": 1148,
        "Semi-Major Axis(m)": 7083131.272910544,
        "Time(s)": 180
    },
    {
        "Altitude(m)": 706952.6672329085,
        "Argument of Periapsis(deg)": 0.010850589130418416,
        "Eccentricity": 0.0,
        "Inclination(deg)": 45.0,
        "Latitude(deg)": 43.57794177063037,
        "Longitude(deg)": -129.57226395448066,
        "Mean Anomaly(deg)": 76.44140638523173,
        "RAAN(deg)": 259.98975736103193,
        "Satellite Name": "Constellation 1 1148",
        "Satellite Number": 1148,
        "Semi-Major Axis(m)": 7083131.272910544,
        "Time(s)": 181
    },
    {
        "Altitude(m)": 706955.776019553,
        "Argument of Periapsis(deg)": 0.01091053713666382,
        "Eccentricity": 0.0,
        "Inclination(deg)": 45.0,
        "Latitude(deg)": 43.59180322841736,
        "Longitude(deg)": -129.49494315096004,
        "Mean Anomaly(deg)": 76.50210752548166,
        "RAAN(deg)": 259.98970077186635,
        "Satellite Name": "Constellation 1 1148",
        "Satellite Number": 1148,
        "Semi-Major Axis(m)": 7083131.272910544,
        "Time(s)": 182
    },
    {
        "Altitude(m)": 706958.8722363247,
        "Argument of Periapsis(deg)": 0.010970485142909228,
        "Eccentricity": 0.0,
        "Inclination(deg)": 45.0,
        "Latitude(deg)": 43.60560664987561,
        "Longitude(deg)": -129.41758506623117,
        "Mean Anomaly(deg)": 76.56280866573155,
        "RAAN(deg)": 259.98964418270083,
        "Satellite Name": "Constellation 1 1148",
        "Satellite Number": 1148,
        "Semi-Major Axis(m)": 7083131.272910544,
        "Time(s)": 183
    },
    {
        "Altitude(m)": 706961.9558649913,
        "Argument of Periapsis(deg)": 0.011030433149154634,
        "Eccentricity": 0.0,
        "Inclination(deg)": 45.0,
        "Latitude(deg)": 43.61935198100117,
        "Longitude(deg)": -129.3401898218356,
        "Mean Anomaly(deg)": 76.62350980598143,
        "RAAN(deg)": 259.9895875935352,
        "Satellite Name": "Constellation 1 1148",
        "Satellite Number": 1148,
        "Semi-Major Axis(m)": 7083131.272910544,
        "Time(s)": 184
    },
    {
        "Altitude(m)": 706965.0268873808,
        "Argument of Periapsis(deg)": 0.01109038115540004,
        "Eccentricity": 0.0,
        "Inclination(deg)": 45.0,
        "Latitude(deg)": 43.633039167955204,
        "Longitude(deg)": -129.2627577079578,
        "Mean Anomaly(deg)": 76.68421094623133,
        "RAAN(deg)": 259.9895310043696,
        "Satellite Name": "Constellation 1 1148",
        "Satellite Number": 1148,
        "Semi-Major Axis(m)": 7083131.272910544,
        "Time(s)": 185
    },
    {
        "Altitude(m)": 706968.0852854067,
        "Argument of Periapsis(deg)": 0.011150329161645444,
        "Eccentricity": 0.0,
        "Inclination(deg)": 45.0,
        "Latitude(deg)": 43.64666815706416,
        "Longitude(deg)": -129.18528851103767,
        "Mean Anomaly(deg)": 76.74491208648126,
        "RAAN(deg)": 259.9894744152041,
        "Satellite Name": "Constellation 1 1148",
        "Satellite Number": 1148,
        "Semi-Major Axis(m)": 7083131.272910544,
        "Time(s)": 186
    },
    {
        "Altitude(m)": 706971.1310410568,
        "Argument of Periapsis(deg)": 0.01121027716789085,
        "Eccentricity": 0.0,
        "Inclination(deg)": 45.0,
        "Latitude(deg)": 43.66023889482187,
        "Longitude(deg)": -129.10778252235056,
        "Mean Anomaly(deg)": 76.80561322673114,
        "RAAN(deg)": 259.9894178260385,
        "Satellite Name": "Constellation 1 1148",
        "Satellite Number": 1148,
        "Semi-Major Axis(m)": 7083131.272910544,
        "Time(s)": 187
    },
    {
        "Altitude(m)": 706974.1641363924,
        "Argument of Periapsis(deg)": 0.011270225174136258,
        "Eccentricity": 0.0,
        "Inclination(deg)": 45.0,
        "Latitude(deg)": 43.6737513278896,
        "Longitude(deg)": -129.03023986561857,
        "Mean Anomaly(deg)": 76.86631436698099,
        "RAAN(deg)": 259.989361236873,
        "Satellite Name": "Constellation 1 1148",
        "Satellite Number": 1148,
        "Semi-Major Axis(m)": 7083131.272910544,
        "Time(s)": 188
    },
    {
        "Altitude(m)": 706977.1845535559,
        "Argument of Periapsis(deg)": 0.011330173180381662,
        "Eccentricity": 0.0,
        "Inclination(deg)": 45.0,
        "Latitude(deg)": 43.68720540309733,
        "Longitude(deg)": -128.9526606651071,
        "Mean Anomaly(deg)": 76.92701550723092,
        "RAAN(deg)": 259.9893046477074,
        "Satellite Name": "Constellation 1 1148",
        "Satellite Number": 1148,
        "Semi-Major Axis(m)": 7083131.272910544,
        "Time(s)": 189
    }
]